CZ-4B R/B               
1 28059U 03049C   17288.32382137  .00000028  00000-0  18704-4 0  9999
2 28059  98.5431 176.5522 0049084 240.3100 257.0142 14.52501878741126
CZ-2C R/B               
1 28222U 04012C   17288.52056021  .00001069  00000-0  69016-4 0  9992
2 28222  97.5396 242.8470 0049363 131.8049   3.7552 15.09415480738721
SL-16 R/B               
1 28353U 04021B   17288.25225997  .00000247  00000-0  15449-3 0  9994
2 28353  71.0017 186.6675 0004985 353.1485   6.9568 14.14205381689122
CZ-2C R/B               
1 28480U 04046B   17288.89867848  .00000031  00000-0  27782-4 0  9994
2 28480  98.1954  17.3137 0141158 228.0013 244.2182 14.25652069671432
ARIANE 5 R/B            
1 28499U 04049H   17288.62519446  .00000127  00000-0  23116-4 0  9999
2 28499  98.0734  12.3069 0092328 185.8851 311.2635 14.79849641691769
CZ-2D R/B               
1 28738U 05024B   17288.70963016  .00000887  00000-0  56395-4 0  9992
2 28738  97.4855 323.1555 0010930 315.6016  44.4337 15.11303967674016
SUZAKU (ASTRO-EII)      
1 28773U 05025A   17288.88610363  .00001660  00000-0  79646-4 0  9999
2 28773  31.3825 233.5746 0004518 121.3423 238.7666 15.16108504675686
ALOS (DAICHI)           
1 28931U 06002A   17288.63055731  .00000283  00000-0  64635-4 0  9998
2 28931  97.8367 309.9168 0000991  49.5406 310.5882 14.62406647625064
H-2A R/B                
1 28932U 06002B   17288.84801015  .00000556  00000-0  58129-4 0  9990
2 28932  98.2086 216.6063 0088370 276.3254 131.5967 14.91513376635790
AKARI (ASTRO-F)         
1 28939U 06005A   17288.78704407  .00004238  00000-0  12819-3 0  9996
2 28939  98.2401 142.9750 0105912 127.5302 233.5619 15.29462567631548
RESURS-DK 1             
1 29228U 06021A   17288.76602132  .00000194  00000-0  22059-4 0  9991
2 29228  69.9345 151.2887 0004472 196.9301 163.1711 15.02224306626200
GENESIS 1               
1 29252U 06029A   17288.47267303  .00001218  00000-0  71175-4 0  9992
2 29252  64.5036 252.6104 0027501 317.0727  42.8249 15.16985232620074
CZ-4B R/B               
1 29507U 06046C   17288.53632120 -.00000441  00000-0 -29293-4 0  9997
2 29507  97.7865 296.2167 0051343 194.5089 165.4663 15.00155301599030
CZ-2C R/B               
1 31114U 07010B   17288.32999308  .00000014  00000-0  25669-4 0  9994
2 31114  98.3847 184.5029 0058819 226.1369 133.4940 14.19254138544544
COSMO-SKYMED 1          
1 31598U 07023A   17288.81485961  .00000508  00000-0  70343-4 0  9990
2 31598  97.8892 110.7911 0001406  78.7877 281.3504 14.82156396560319
GENESIS 2               
1 31789U 07028A   17288.50945255  .00000903  00000-0  56697-4 0  9995
2 31789  64.5028 290.8633 0015941 215.4568 144.5496 15.16252372567158
COSMOS 2428             
1 31792U 07029A   17288.75084634  .00000344  00000-0  21238-3 0  9993
2 31792  70.9303 159.0514 0006116 105.7597 254.4198 14.12354516531092
SL-16 R/B               
1 31793U 07029B   17288.59710330 -.00000244  00000-0 -10244-3 0  9991
2 31793  70.9742 136.2410 0002880 279.8142 144.5949 14.14390424531706
CZ-4B DEB               
1 33411U 08053D   17288.58456071  .00258603  00000-0  10805-2 0  9990
2 33411  97.3872 344.3283 0004187 197.1814 162.9315 15.84967140495064
KORONAS-FOTON           
1 33504U 09003A   17288.58360774  .00000954  00000-0  49228-4 0  9990
2 33504  82.4398 113.3426 0020705  56.5458 303.7749 15.14962772479601
TIANGONG 1              
1 37820U 11053A   17288.75912495  .00053956  91765-5  19660-3 0  9994
2 37820  42.7562 177.7087 0019929 224.4003 242.2068 15.88099695347075
H-2A R/B                
1 38341U 12025E   17288.82880245  .00000358  00000-0  49627-4 0  9990
2 38341  98.4278  12.5508 0056895 129.6380 230.9872 14.83645226292760
CUSAT 2 & FALCON 9 R/B  
1 39271U 13055G   17288.42010889  .00007443  00000-0  19110-3 0  9997
2 39271  80.9684 229.7854 0625916 206.0837 150.7546 14.38830333209905
ALOS-2                  
1 39766U 14029A   17288.83960730  .00000959  00000-0  13529-3 0  9995
2 39766  97.9222  24.4355 0001644 101.1834 258.9555 14.79476983183447
SL-27 R/B               
1 40354U 14084B   17288.86150913  .00002007  00000-0  52680-4 0  9996
2 40354  74.7399 244.0178 0040267 207.4138 152.4950 15.38527153158412
ASTRO-H (HITOMI)        
1 41337U 16012A   17288.76998306  .00000454  00000-0  30137-4 0  9993
2 41337  31.0060  74.6668 0012347 151.9910 208.1391 14.98371959 91022
TIANGONG-2              
1 41765U 16057A   17288.89158565  .00008340  00000-0  10807-3 0  9999
2 41765  42.7832 357.8370 0003127 340.5181 353.8039 15.59188507 61815
SHENZHOU-11 MODULE      
1 41868U 16061G   17288.50624819  .00014371  00000-0  13067-3 0  9998
2 41868  42.7964 350.3098 0005160 246.6804 245.2906 15.67763881 51816
TIANZHOU 1              
1 42684U 17021A   17264.10196765  .00025036  00000-0  31524-3 0  9994
2 42684  42.7846 145.1653 0002796 246.0577 114.0462 15.59122908 23989
